YAOGAN-43 01G           
1 60464U 24148G   26068.44348481  .00010133  00000+0  35873-3 0  9993
2 60464  35.0006  62.0013 0007382 306.3543  53.6492 15.28332833 87004
STARLINK-35407          
1 66334U 25253R   26068.46894423  .00025768  00000+0  94236-3 0  9995
2 66334  42.9964 213.5000 0001637 213.2147 146.8603 15.27588831 20217
